{
 "type": "FeatureCollection",
 "name": "byu-main-campus",
 "crs": {
  "type": "name",
  "properties": {
   "name": "urn:ogc:def:crs:OGC:1.3:CRS84"
  }
 },
 "note": "BYU Provo main campus, the largest outer way of OpenStreetMap relation 21157981, fetched 2026-09-09. Committed so the Lab 3 figure build does not depend on Overpass, which rate-limits. Measures 1,444,296 m2 (357 acres) in EPSG:26912, matching the area Lab 3 tells students to expect. OpenStreetMap data is ODbL licensed.",
 "features": [
  {
   "type": "Feature",
   "properties": {
    "id": 1,
    "name": "BYU main campus"
   },
   "geometry": {
    "type": "Polygon",
    "coordinates": [
     [
      [
       -111.6432247,
       40.247079
      ],
      [
       -111.6432918,
       40.2470792
      ],
      [
       -111.6432743,
       40.2463835
      ],
      [
       -111.6437604,
       40.2463795
      ],
      [
       -111.6437561,
       40.2461962
      ],
      [
       -111.6432697,
       40.2462028
      ],
      [
       -111.6432648,
       40.2460088
      ],
      [
       -111.6433029,
       40.2459524
      ],
      [
       -111.6437936,
       40.2459521
      ],
      [
       -111.6437943,
       40.2457805
      ],
      [
       -111.6437914,
       40.2453428
      ],
      [
       -111.6452589,
       40.2453546
      ],
      [
       -111.6452494,
       40.2457774
      ],
      [
       -111.6452454,
       40.2459208
      ],
      [
       -111.6454783,
       40.2459205
      ],
      [
       -111.6457152,
       40.2459269
      ],
      [
       -111.6457472,
       40.2448857
      ],
      [
       -111.646019,
       40.2448849
      ],
      [
       -111.6460105,
       40.2454314
      ],
      [
       -111.6464463,
       40.2454336
      ],
      [
       -111.6466393,
       40.2454367
      ],
      [
       -111.6466419,
       40.2450579
      ],
      [
       -111.6469073,
       40.2450578
      ],
      [
       -111.6469744,
       40.2451153
      ],
      [
       -111.6469795,
       40.2451176
      ],
      [
       -111.647307,
       40.2452647
      ],
      [
       -111.6477081,
       40.2454293
      ],
      [
       -111.6479903,
       40.2454306
      ],
      [
       -111.6481998,
       40.2453775
      ],
      [
       -111.648458,
       40.2453454
      ],
      [
       -111.6485281,
       40.2453113
      ],
      [
       -111.6485616,
       40.2453006
      ],
      [
       -111.6486783,
       40.2452555
      ],
      [
       -111.6487109,
       40.245224
      ],
      [
       -111.6487084,
       40.2449013
      ],
      [
       -111.6487286,
       40.2447969
      ],
      [
       -111.6487283,
       40.2444166
      ],
      [
       -111.6487283,
       40.2443939
      ],
      [
       -111.6483411,
       40.244222
      ],
      [
       -111.6483444,
       40.2436301
      ],
      [
       -111.6484339,
       40.243636
      ],
      [
       -111.6497295,
       40.2436364
      ],
      [
       -111.6498121,
       40.2436365
      ],
      [
       -111.6500738,
       40.243632
      ],
      [
       -111.6500748,
       40.2431031
      ],
      [
       -111.6508907,
       40.2431143
      ],
      [
       -111.6515428,
       40.2431151
      ],
      [
       -111.6515401,
       40.2436312
      ],
      [
       -111.6515369,
       40.2442273
      ],
      [
       -111.6515377,
       40.2443153
      ],
      [
       -111.651537,
       40.2443727
      ],
      [
       -111.6515339,
       40.2444153
      ],
      [
       -111.6532982,
       40.2443544
      ],
      [
       -111.6534769,
       40.2443572
      ],
      [
       -111.6535284,
       40.2442469
      ],
      [
       -111.6535312,
       40.2436896
      ],
      [
       -111.6535795,
       40.2436917
      ],
      [
       -111.6549428,
       40.2436968
      ],
      [
       -111.6549939,
       40.2437021
      ],
      [
       -111.655018,
       40.2442481
      ],
      [
       -111.6550289,
       40.2442947
      ],
      [
       -111.655032,
       40.2443078
      ],
      [
       -111.6550358,
       40.2443241
      ],
      [
       -111.65525,
       40.2443551
      ],
      [
       -111.6554552,
       40.2444094
      ],
      [
       -111.6560343,
       40.2443982
      ],
      [
       -111.6560418,
       40.2451338
      ],
      [
       -111.6560408,
       40.245819
      ],
      [
       -111.65604,
       40.2463865
      ],
      [
       -111.6561476,
       40.2463869
      ],
      [
       -111.6572588,
       40.246391
      ],
      [
       -111.6572567,
       40.2466021
      ],
      [
       -111.6573292,
       40.2466116
      ],
      [
       -111.6574057,
       40.246634
      ],
      [
       -111.6574214,
       40.2466316
      ],
      [
       -111.6584945,
       40.2466323
      ],
      [
       -111.6585005,
       40.2471466
      ],
      [
       -111.6584906,
       40.2479376
      ],
      [
       -111.6577738,
       40.2479383
      ],
      [
       -111.6577762,
       40.2483109
      ],
      [
       -111.6584719,
       40.2483083
      ],
      [
       -111.658469,
       40.2483499
      ],
      [
       -111.6584623,
       40.2486826
      ],
      [
       -111.6584475,
       40.2487809
      ],
      [
       -111.6584167,
       40.2488218
      ],
      [
       -111.6583805,
       40.2488341
      ],
      [
       -111.6583255,
       40.2488505
      ],
      [
       -111.6581807,
       40.2488832
      ],
      [
       -111.6580479,
       40.2489252
      ],
      [
       -111.6579205,
       40.2489784
      ],
      [
       -111.6569723,
       40.2495296
      ],
      [
       -111.656631,
       40.2497584
      ],
      [
       -111.656517,
       40.2498561
      ],
      [
       -111.6563454,
       40.2500219
      ],
      [
       -111.6562173,
       40.2501443
      ],
      [
       -111.6561556,
       40.2502384
      ],
      [
       -111.6560993,
       40.2503561
      ],
      [
       -111.656055,
       40.250481
      ],
      [
       -111.6560389,
       40.2505312
      ],
      [
       -111.6560107,
       40.250828
      ],
      [
       -111.6560107,
       40.2518505
      ],
      [
       -111.6559987,
       40.2529897
      ],
      [
       -111.6560322,
       40.2532154
      ],
      [
       -111.6560195,
       40.2541535
      ],
      [
       -111.6560154,
       40.2549216
      ],
      [
       -111.6560094,
       40.2552215
      ],
      [
       -111.656002,
       40.2552594
      ],
      [
       -111.6559926,
       40.2552972
      ],
      [
       -111.6559799,
       40.2553489
      ],
      [
       -111.6559732,
       40.2556028
      ],
      [
       -111.6559787,
       40.2556677
      ],
      [
       -111.6558418,
       40.2556795
      ],
      [
       -111.6555259,
       40.255678
      ],
      [
       -111.654093,
       40.2556698
      ],
      [
       -111.6531267,
       40.2556713
      ],
      [
       -111.652768,
       40.2556662
      ],
      [
       -111.6526405,
       40.2556599
      ],
      [
       -111.65263,
       40.2556598
      ],
      [
       -111.6525135,
       40.2556354
      ],
      [
       -111.6524002,
       40.2556316
      ],
      [
       -111.6517082,
       40.2555934
      ],
      [
       -111.6515329,
       40.2555826
      ],
      [
       -111.651346,
       40.2555752
      ],
      [
       -111.6512239,
       40.2555593
      ],
      [
       -111.6510552,
       40.2555511
      ],
      [
       -111.6508336,
       40.2555395
      ],
      [
       -111.6507152,
       40.255534
      ],
      [
       -111.6503111,
       40.2555434
      ],
      [
       -111.6502272,
       40.2555531
      ],
      [
       -111.6501039,
       40.25557
      ],
      [
       -111.6500086,
       40.2555813
      ],
      [
       -111.649894,
       40.2556079
      ],
      [
       -111.6483933,
       40.2560951
      ],
      [
       -111.6481807,
       40.2561703
      ],
      [
       -111.6477321,
       40.2563816
      ],
      [
       -111.6476322,
       40.2564267
      ],
      [
       -111.6475209,
       40.2564712
      ],
      [
       -111.6472547,
       40.2565341
      ],
      [
       -111.6471304,
       40.2565583
      ],
      [
       -111.6470534,
       40.2565626
      ],
      [
       -111.6470081,
       40.2565606
      ],
      [
       -111.6469174,
       40.2565567
      ],
      [
       -111.6468441,
       40.2565579
      ],
      [
       -111.6465236,
       40.2565622
      ],
      [
       -111.6459984,
       40.2565715
      ],
      [
       -111.6458166,
       40.2565754
      ],
      [
       -111.6457921,
       40.2565808
      ],
      [
       -111.6457381,
       40.2565909
      ],
      [
       -111.6456423,
       40.2565933
      ],
      [
       -111.6454111,
       40.256596
      ],
      [
       -111.6449332,
       40.2566011
      ],
      [
       -111.6446754,
       40.2565956
      ],
      [
       -111.644408,
       40.2565871
      ],
      [
       -111.6442103,
       40.2565812
      ],
      [
       -111.6440315,
       40.2565773
      ],
      [
       -111.6438206,
       40.2565789
      ],
      [
       -111.6435063,
       40.2565812
      ],
      [
       -111.6434151,
       40.256591
      ],
      [
       -111.6434172,
       40.255571
      ],
      [
       -111.6433161,
       40.2497199
      ],
      [
       -111.6432761,
       40.2497174
      ],
      [
       -111.6432247,
       40.247079
      ]
     ]
    ]
   }
  }
 ]
}